{
  "links" : {
    "next" : "https://api.nasa.gov/neo/rest/v1/feed?start_date=2009-12-23&end_date=2009-12-23&detailed=true&api_key=t0TVs3DtDT2H8Oy2Zy8m2eVrNsAVKAexjcZXUckd",
    "prev" : "https://api.nasa.gov/neo/rest/v1/feed?start_date=2009-12-21&end_date=2009-12-21&detailed=true&api_key=t0TVs3DtDT2H8Oy2Zy8m2eVrNsAVKAexjcZXUckd",
    "self" : "https://api.nasa.gov/neo/rest/v1/feed?start_date=2009-12-22&end_date=2009-12-22&detailed=true&api_key=t0TVs3DtDT2H8Oy2Zy8m2eVrNsAVKAexjcZXUckd"
  },
  "element_count" : 7,
  "near_earth_objects" : {
    "2009-12-22" : [ {
      "links" : {
        "self" : "https://api.nasa.gov/neo/rest/v1/neo/3655732?api_key=t0TVs3DtDT2H8Oy2Zy8m2eVrNsAVKAexjcZXUckd"
      },
      "neo_reference_id" : "3655732",
      "name" : "(2013 YT102)",
      "nasa_jpl_url" : "http://ssd.jpl.nasa.gov/sbdb.cgi?sstr=3655732",
      "absolute_magnitude_h" : 25.0,
      "estimated_diameter" : {
        "kilometers" : {
          "estimated_diameter_min" : 0.02658,
          "estimated_diameter_max" : 0.0594346868
        },
        "meters" : {
          "estimated_diameter_min" : 26.58,
          "estimated_diameter_max" : 59.4346868419
        },
        "miles" : {
          "estimated_diameter_min" : 0.0165160412,
          "estimated_diameter_max" : 0.0369309908
        },
        "feet" : {
          "estimated_diameter_min" : 87.2047272,
          "estimated_diameter_max" : 194.9956979785
        }
      },
      "is_potentially_hazardous_asteroid" : false,
      "close_approach_data" : [ {
        "close_approach_date" : "2009-12-22",
        "epoch_date_close_approach" : 1261468800000,
        "relative_velocity" : {
          "kilometers_per_second" : "20.9956829977",
          "kilometers_per_hour" : "75584.4587917186",
          "miles_per_hour" : "46965.2432975542"
        },
        "miss_distance" : {
          "astronomical" : "0.4448063743",
          "lunar" : "173.0296783447",
          "kilometers" : "66542084",
          "miles" : "41347336"
        },
        "orbiting_body" : "Earth"
      } ],
      "orbital_data" : {
        "orbit_id" : "12",
        "orbit_determination_date" : "2017-04-06 08:43:05",
        "orbit_uncertainty" : "2",
        "minimum_orbit_intersection" : ".0325993",
        "jupiter_tisserand_invariant" : "5.978",
        "epoch_osculation" : "2458000.5",
        "eccentricity" : ".2090092212185581",
        "semi_major_axis" : "1.013021713320325",
        "inclination" : "12.76626499927213",
        "ascending_node_longitude" : "278.376867525879",
        "orbital_period" : "372.4144796393974",
        "perihelion_distance" : ".8012908339417544",
        "perihelion_argument" : "285.9744206235835",
        "aphelion_distance" : "1.224752592698896",
        "perihelion_time" : "2457859.585053369191",
        "mean_anomaly" : "136.2175306293449",
        "mean_motion" : ".9666648846429975",
        "equinox" : "J2000"
      }
    }, {
      "links" : {
        "self" : "https://api.nasa.gov/neo/rest/v1/neo/3666785?api_key=t0TVs3DtDT2H8Oy2Zy8m2eVrNsAVKAexjcZXUckd"
      },
      "neo_reference_id" : "3666785",
      "name" : "(2014 FP47)",
      "nasa_jpl_url" : "http://ssd.jpl.nasa.gov/sbdb.cgi?sstr=3666785",
      "absolute_magnitude_h" : 22.3,
      "estimated_diameter" : {
        "kilometers" : {
          "estimated_diameter_min" : 0.0921626549,
          "estimated_diameter_max" : 0.2060819612
        },
        "meters" : {
          "estimated_diameter_min" : 92.1626548503,
          "estimated_diameter_max" : 206.0819612321
        },
        "miles" : {
          "estimated_diameter_min" : 0.057267201,
          "estimated_diameter_max" : 0.1280533543
        },
        "feet" : {
          "estimated_diameter_min" : 302.370924539,
          "estimated_diameter_max" : 676.1219416887
        }
      },
      "is_potentially_hazardous_asteroid" : false,
      "close_approach_data" : [ {
        "close_approach_date" : "2009-12-22",
        "epoch_date_close_approach" : 1261468800000,
        "relative_velocity" : {
          "kilometers_per_second" : "8.495046028",
          "kilometers_per_hour" : "30582.1657007029",
          "miles_per_hour" : "19002.5684599729"
        },
        "miss_distance" : {
          "astronomical" : "0.4552441447",
          "lunar" : "177.0899810791",
          "kilometers" : "68103560",
          "miles" : "42317588"
        },
        "orbiting_body" : "Earth"
      } ],
      "orbital_data" : {
        "orbit_id" : "29",
        "orbit_determination_date" : "2017-04-06 08:41:50",
        "orbit_uncertainty" : "3",
        "minimum_orbit_intersection" : ".0259126",
        "jupiter_tisserand_invariant" : "5.372",
        "epoch_osculation" : "2458000.5",
        "eccentricity" : ".2597323195329087",
        "semi_major_axis" : "1.16651991571092",
        "inclination" : "5.035044225594919",
        "ascending_node_longitude" : "28.8520216092119",
        "orbital_period" : "460.1894557939667",
        "perihelion_distance" : ".8635369922219897",
        "perihelion_argument" : "271.6146744029957",
        "aphelion_distance" : "1.46950283919985",
        "perihelion_time" : "2457770.912607255688",
        "mean_anomaly" : "179.6031185576674",
        "mean_motion" : ".7822865028032653",
        "equinox" : "J2000"
      }
    }, {
      "links" : {
        "self" : "https://api.nasa.gov/neo/rest/v1/neo/3739011?api_key=t0TVs3DtDT2H8Oy2Zy8m2eVrNsAVKAexjcZXUckd"
      },
      "neo_reference_id" : "3739011",
      "name" : "(2015 YU7)",
      "nasa_jpl_url" : "http://ssd.jpl.nasa.gov/sbdb.cgi?sstr=3739011",
      "absolute_magnitude_h" : 21.3,
      "estimated_diameter" : {
        "kilometers" : {
          "estimated_diameter_min" : 0.1460679643,
          "estimated_diameter_max" : 0.3266178974
        },
        "meters" : {
          "estimated_diameter_min" : 146.0679642714,
          "estimated_diameter_max" : 326.6178974458
        },
        "miles" : {
          "estimated_diameter_min" : 0.090762397,
          "estimated_diameter_max" : 0.2029508896
        },
        "feet" : {
          "estimated_diameter_min" : 479.2256199,
          "estimated_diameter_max" : 1071.581062656
        }
      },
      "is_potentially_hazardous_asteroid" : true,
      "close_approach_data" : [ {
        "close_approach_date" : "2009-12-22",
        "epoch_date_close_approach" : 1261468800000,
        "relative_velocity" : {
          "kilometers_per_second" : "26.8305772986",
          "kilometers_per_hour" : "96590.0782751162",
          "miles_per_hour" : "60017.3183593354"
        },
        "miss_distance" : {
          "astronomical" : "0.4603069923",
          "lunar" : "179.0594177246",
          "kilometers" : "68860944",
          "miles" : "42788208"
        },
        "orbiting_body" : "Earth"
      } ],
      "orbital_data" : {
        "orbit_id" : "24",
        "orbit_determination_date" : "2017-04-06 08:29:36",
        "orbit_uncertainty" : "4",
        "minimum_orbit_intersection" : ".00550595",
        "jupiter_tisserand_invariant" : "7.067",
        "epoch_osculation" : "2458000.5",
        "eccentricity" : ".4126197350038212",
        "semi_major_axis" : ".8194554483896567",
        "inclination" : "7.189322327629749",
        "ascending_node_longitude" : "254.1325406877347",
        "orbital_period" : "270.948310643592",
        "perihelion_distance" : ".4813319584276791",
        "perihelion_argument" : "44.20013125674127",
        "aphelion_distance" : "1.157578938351634",
        "perihelion_time" : "2458108.399491980504",
        "mean_anomaly" : "216.6375371718895",
        "mean_motion" : "1.328666708217818",
        "equinox" : "J2000"
      }
    } ]
  }
}